{
    "links": {
        "self": "http://www.neowsapp.com/rest/v1/neo/3475994?api_key=iIulBulltgU6a56xZRHN4H3l9WmuAYTsLGpBGhQ2"
    },
    "id": "3475994",
    "neo_reference_id": "3475994",
    "name": "(2009 VK24)",
    "designation": "2009 VK24",
    "nasa_jpl_url": "http://ssd.jpl.nasa.gov/sbdb.cgi?sstr=3475994",
    "absolute_magnitude_h": 24.1,
    "estimated_diameter": {
        "kilometers": {
            "estimated_diameter_min": 0.040230458,
            "estimated_diameter_max": 0.0899580388
        },
        "meters": {
            "estimated_diameter_min": 40.2304579834,
            "estimated_diameter_max": 89.9580388169
        },
        "miles": {
            "estimated_diameter_min": 0.0249980399,
            "estimated_diameter_max": 0.0558973165
        },
        "feet": {
            "estimated_diameter_min": 131.9896957704,
            "estimated_diameter_max": 295.1379320721
        }
    },
    "is_potentially_hazardous_asteroid": false,
    "close_approach_data": [
        {
            "close_approach_date": "2009-11-18",
            "close_approach_date_full": "2009-Nov-18 14:16",
            "epoch_date_close_approach": 1258553760000,
            "relative_velocity": {
                "kilometers_per_second": "5.5791382476",
                "kilometers_per_hour": "20084.8976911861",
                "miles_per_hour": "12479.9743459484"
            },
            "miss_distance": {
                "astronomical": "0.0731536894",
                "lunar": "28.4567851766",
                "kilometers": "10943636.116881578",
                "miles": "6800060.1600506564"
            },
            "orbiting_body": "Earth"
        }
    ],
    "orbital_data": {
        "orbit_id": "6",
        "orbit_determination_date": "2017-04-06 08:59:15",
        "first_observation_date": "2009-11-10",
        "last_observation_date": "2009-11-11",
        "data_arc_in_days": 1,
        "observations_used": 31,
        "orbit_uncertainty": "8",
        "minimum_orbit_intersection": ".073129",
        "jupiter_tisserand_invariant": "4.028",
        "epoch_osculation": "2455146.5",
        "eccentricity": ".4094583583847325",
        "semi_major_axis": "1.749219658277501",
        "inclination": "5.463354213159334",
        "ascending_node_longitude": "27.120558739",
        "orbital_period": "845.0160366316071",
        "perihelion_distance": "1.032987048544893",
        "perihelion_argument": "44.92711250352763",
        "aphelion_distance": "2.46545226801011",
        "perihelion_time": "2455168.217063193833",
        "mean_anomaly": "350.7479356475358",
        "mean_motion": ".4260274176985182",
        "equinox": "J2000",
        "orbit_class": {
            "orbit_class_type": "AMO",
            "orbit_class_description": "Near-Earth asteroid orbits similar to that of 1221 Amor",
            "orbit_class_range": "1.017 AU < q (perihelion) < 1.3 AU"
        }
    },
    "is_sentry_object": false
}